BEIDOU 3 (C01)          
1 36287U 10001A   22262.38084351 -.00000285  00000+0  00000+0 0  9998
2 36287   1.6711  46.9498 0000654  24.7887 204.1039  1.00271809 46451
BEIDOU 5 (C06)          
1 36828U 10036A   22262.65702078 -.00000158  00000+0  00000+0 0  9999
2 36828  54.1986 175.3689 0030283 187.5604 340.1511  1.00271367 44525
BEIDOU 6 (C04)          
1 37210U 10057A   22262.60128994 -.00000118  00000+0  00000+0 0  9998
2 37210   0.7303  37.6887 0007137 149.8445 187.4287  1.00270648 43585
BEIDOU 7 (C07)          
1 37256U 10068A   22262.51766088 -.00000158  00000+0  00000+0 0  9996
2 37256  50.0446 288.5198 0024102 204.2027 160.2005  1.00277402 43094
BEIDOU 8 (C08)          
1 37384U 11013A   22262.24314662 -.00000152  00000+0  00000+0 0  9990
2 37384  60.4300  53.3317 0024094 177.6435 322.8351  1.00282564 41966
BEIDOU 9 (C09)          
1 37763U 11038A   22262.65460990 -.00000107  00000+0  00000+0 0  9999
2 37763  54.4816 177.8706 0099083 227.9225 282.8166  1.00261470 40941
BEIDOU 10 (C10)         
1 37948U 11073A   22262.53729909 -.00000112  00000+0  00000+0 0  9994
2 37948  50.1618 288.1644 0086929 219.5759 140.2089  1.00272775 39703
BEIDOU 11 (C05)         
1 38091U 12008A   22262.57978399  .00000051  00000+0  00000+0 0  9997
2 38091   1.7697  69.5041 0011272 343.1213 213.3011  1.00275047 38770
BEIDOU 12 (C11)         
1 38250U 12018A   22262.57537502 -.00000110  00000+0  00000+0 0  9999
2 38250  56.6654 350.4523 0022869 249.9239  65.3565  1.86234307 70831
BEIDOU 13 (C12)         
1 38251U 12018B   22261.79431725 -.00000113  00000+0  00000+0 0  9996
2 38251  56.5816 349.7962 0013885 249.1508 306.6219  1.86234050 70829
BEIDOU 15 (C14)         
1 38775U 12050B   22262.56855052  .00000009  00000+0  00000+0 0  9995
2 38775  55.4542 108.5174 0012008 333.2699 217.5052  1.86231314 68217
BEIDOU 16 (C02)         
1 38953U 12059A   22262.56829750 -.00000183  00000+0  00000+0 0  9992
2 38953   1.1527  81.2993 0023847 295.4363 270.4780  1.00272620 36203
BEIDOU 17 (C31)         
1 40549U 15019A   22262.51635486 -.00000152  00000+0  00000+0 0  9997
2 40549  51.7230 311.6646 0038754 197.7701 130.7144  1.00276960 27378
BEIDOU 18 (C57)         
1 40748U 15037A   22262.15152569 -.00000111  00000+0  00000+0 0  9999
2 40748  55.8311 348.5945 0001473  48.2068 296.3818  1.86233363 48654
BEIDOU 19 (C58)         
1 40749U 15037B   22261.94357198 -.00000112  00000+0  00000+0 0  9992
2 40749  55.8344 348.5911 0003052 300.8895  38.4730  1.86232977 48641
BEIDOU 20 (C18)         
1 40938U 15053A   22262.01307597 -.00000089  00000+0  00000+0 0  9990
2 40938  51.3572 274.7943 0046425 199.7095 344.6563  1.00271991 25644
BEIDOU IGSO-6 (C13)     
1 41434U 16021A   22262.39008000 -.00000124  00000+0  00000+0 0  9996
2 41434  58.2390  51.8625 0045150 214.9846 326.8641  1.00264727 23779
BEIDOU-2 G7 (C03)       
1 41586U 16037A   22262.59211037 -.00000360  00000+0  00000+0 0  9991
2 41586   1.5792  67.9065 0007683 353.9215 260.3751  1.00273217 23085
BEIDOU-3 M1 (C19)       
1 43001U 17069A   22262.31700206  .00000006  00000+0  00000+0 0  9998
2 43001  55.6070 108.5386 0007990 297.0178 241.4641  1.86231714 33149
BEIDOU-3 M2 (C20)       
1 43002U 17069B   22262.12847098  .00000003  00000+0  00000+0 0  9996
2 43002  55.6060 108.5806 0006552 326.3734 128.5944  1.86231293 33135
BEIDOU-3 M3 (C27)       
1 43107U 18003A   22262.43477781 -.00000111  00000+0  00000+0 0  9994
2 43107  55.2825 349.4599 0004018  72.3087  34.2906  1.86232487 31905
BEIDOU-3 M4 (C28)       
1 43108U 18003B   22261.73433221 -.00000114  00000+0  00000+0 0  9991
2 43108  55.2763 349.4723 0003687 236.1165 164.2282  1.86230935 31899
BEIDOU-3 M5 (C21)       
1 43207U 18018A   22261.58175756 -.00000004  00000+0  00000+0 0  9994
2 43207  55.5655 108.6738 0004803   3.7241 356.3597  1.86231648 31274
BEIDOU-3 M6 (C22)       
1 43208U 18018B   22261.64844605 -.00000003  00000+0  00000+0 0  9997
2 43208  55.5646 108.6768 0006180 313.3190  46.7154  1.86231567 31270
BEIDOU-3 M7 (C29)       
1 43245U 18029A   22262.45115688 -.00000109  00000+0  00000+0 0  9999
2 43245  55.1931 347.2215 0001037 190.5835 197.4976  1.86232697 30448
BEIDOU-3 M8 (C30)       
1 43246U 18029B   22262.43538428 -.00000109  00000+0  10000-3 0  9994
2 43246  55.1898 347.2515 0002759   1.4327  62.6861  1.86232918 30433
BEIDOU IGSO-7 (C16)     
1 43539U 18057A   22261.74720278 -.00000160  00000+0  00000+0 0  9991
2 43539  55.0901 174.9061 0052490 228.2690 337.6317  1.00282196 15446
BEIDOU-3 M9 (C23)       
1 43581U 18062A   22262.29493984  .00000025  00000+0  00000+0 0  9995
2 43581  54.2540 228.8719 0005964 276.1145 265.1060  1.86231906 28174
BEIDOU-3 M10 (C24)      
1 43582U 18062B   22262.41230010  .00000024  00000+0  00000+0 0  9998
2 43582  54.2532 228.8572 0005253 340.1538  11.6423  1.86232350 28173
BEIDOU-3 M11 (C25)      
1 43602U 18067A   22262.47706491  .00000022  00000+0  00000+0 0  9991
2 43602  54.3371 227.4785 0006949   1.6186  74.7962  1.86231519 27678
BEIDOU-3 M12 (C26)      
1 43603U 18067B   22262.23452144  .00000024  00000+0  00000+0 0  9991
2 43603  54.3339 227.4532 0004300 346.9157 197.2414  1.86231544 27687
BEIDOU-3 M13 (C32)      
1 43622U 18072A   22262.22938067  .00000005  00000+0  00000+0 0  9999
2 43622  55.5325 108.2038 0004758 292.7599 276.9968  1.86231768 27191
BEIDOU-3 M14 (C33)      
1 43623U 18072B   22262.58458001  .00000010  00000+0  00000+0 0  9990
2 43623  55.5355 108.1840 0003296 335.6162 202.5262  1.86231791 27204
BEIDOU-3 M15 (C34)      
1 43647U 18078A   22262.43428426 -.00000110  00000+0  10000-3 0  9991
2 43647  55.0879 347.3723 0005069   5.8867 327.1368  1.86232836 26707
BEIDOU-3 M16 (C35)      
1 43648U 18078B   22262.56527424 -.00000109  00000+0  00000+0 0  9997
2 43648  55.0844 347.3744 0003177  25.3720 303.0816  1.86232252 26721
BEIDOU-3 G1 (C59)       
1 43683U 18085A   22262.54201289 -.00000284  00000+0  00000+0 0  9994
2 43683   0.9950 151.6314 0004329  45.7681 136.2394  1.00273259 14359
BEIDOU-3 M17 (C36)      
1 43706U 18093A   22262.22597364  .00000025  00000+0  00000+0 0  9998
2 43706  54.3363 228.7666 0010756 277.4059  82.4508  1.86232102 26084
BEIDOU-3 M18 (C37)      
1 43707U 18093B   22262.35604924  .00000024  00000+0  00000+0 0  9993
2 43707  54.3371 228.7527 0009415 298.0787 240.2915  1.86232225 26078
BEIDOU-3 IGSO-1 (C38)   
1 44204U 19023A   22262.22253374 -.00000188  00000+0  00000+0 0  9997
2 44204  56.6993  51.9659 0023493 188.4925 317.3608  1.00281421 12658
BEIDOU-2 G8             
1 44231U 19027A   22262.37830894 -.00000253  00000+0  00000+0 0  9998
2 44231   1.0847  79.0074 0006139 117.0428  82.8977  1.00275524 12364
BEIDOU-3 IGSO-2 (C39)   
1 44337U 19035A   22261.98563883 -.00000164  00000+0  00000+0 0  9992
2 44337  55.1279 170.8925 0025737 192.4647 109.1266  1.00275911 11981
BEIDOU-3 M23 (C45)      
1 44542U 19061A   22262.16221582  .00000027  00000+0  00000+0 0  9994
2 44542  54.5627 228.9294 0008854 331.2936  28.6368  1.86231565 20336
BEIDOU-3 M24 (C46)      
1 44543U 19061B   22262.59082060  .00000023  00000+0  00000+0 0  9994
2 44543  54.5604 228.8845 0006485 312.3282 246.3930  1.86231825 20338
BEIDOU-3 IGSO-3         
1 44709U 19073A   22262.65759237 -.00000139  00000+0  10000-3 0  9999
2 44709  57.1111 295.4055 0027537 182.2282 237.6492  1.00280234 10746
BEIDOU-3 M21            
1 44793U 19078A   22262.50338272 -.00000109  00000+0  10000-3 0  9990
2 44793  54.9364 347.3802 0005064  15.9832 317.1145  1.86232274 19197
BEIDOU-3 M22            
1 44794U 19078B   22262.63068517 -.00000109  00000+0  00000+0 0  9992
2 44794  54.9106 347.3662 0002890   6.9073 323.3679  1.86232772 19191
BEIDOU-3 M19            
1 44864U 19090A   22262.11632118  .00000003  00000+0  00000+0 0  9993
2 44864  55.4673 108.4138 0015228 271.0667 268.7471  1.86231932 18773
BEIDOU-3 M20            
1 44865U 19090B   22262.56890096  .00000009  00000+0  00000+0 0  9990
2 44865  55.4700 108.4304 0013375 286.7431 286.3567  1.86231888 18753
BEIDOU-3 G2             
1 45344U 20017A   22262.51234167 -.00000146  00000+0  00000+0 0  9993
2 45344   2.0185 356.8085 0004008 157.6090 108.4825  1.00272644  9556
BEIDOU-3 G3             
1 45807U 20040A   22262.59220264 -.00000360  00000+0  00000+0 0  9992
2 45807   1.2361 306.3077 0007962 331.7952  44.0828  1.00268409  8373
